[{"OBJECT_NAME":"HAWK-6B","OBJECT_ID":"2023-011A","EPOCH":"2026-03-09T09:51:17.950752","MEAN_MOTION":15.21905453,"ECCENTRICITY":0.00019203,"INCLINATION":40.5121,"RA_OF_ASC_NODE":213.6048,"ARG_OF_PERICENTER":18.2889,"MEAN_ANOMALY":341.7989,"EPHEMERIS_TYPE":0,"CLASSIFICATION_TYPE":"U","NORAD_CAT_ID":55324,"ELEMENT_SET_NO":999,"REV_AT_EPOCH":17263,"BSTAR":0.00033476386,"MEAN_MOTION_DOT":7.596e-5,"MEAN_MOTION_DDOT":0},{"OBJECT_NAME":"OBJECT AK","OBJECT_ID":"2025-313AK","EPOCH":"2026-03-09T22:15:06.103872","MEAN_MOTION":15.21477682,"ECCENTRICITY":0.00118476,"INCLINATION":97.3947,"RA_OF_ASC_NODE":145.1584,"ARG_OF_PERICENTER":356.5328,"MEAN_ANOMALY":3.5824,"EPHEMERIS_TYPE":0,"CLASSIFICATION_TYPE":"U","NORAD_CAT_ID":67281,"ELEMENT_SET_NO":999,"REV_AT_EPOCH":1085,"BSTAR":0.00031140912,"MEAN_MOTION_DOT":6.947e-5,"MEAN_MOTION_DDOT":0}]
